NORAD_CAT_ID,OBJECT_NAME,OBJECT_TYPE,EPOCH,MEAN_MOTION,ECCENTRICITY,INCLINATION,RA_OF_ASC_NODE,ARG_OF_PERICENTER,MEAN_ANOMALY,BSTAR,MEAN_MOTION_DOT,MEAN_MOTION_DDOT,TLE_LINE0,TLE_LINE1,TLE_LINE2,SEMIMAJOR_AXIS,PERIOD,APOGEE,PERIGEE,DECAYED
55677.0,STARLINK-5324,PAYLOAD,2024-01-04 03:27:28,14.98331575,0.0002734,70.001,350.268,260.6696,99.4154,-7.7429e-06,-1.85e-06,0.0,0 STARLINK-5324,1 55677U 23021BB  24004.14408407 -.00000185  00000-0 -77429-5 0  9996,2 55677  70.0010 350.2680 0002734 260.6696  99.4154 14.98331575 50312,6950.188,96.107,573.953,570.153,0.0
55677.0,STARLINK-5324,PAYLOAD,2024-01-04 08:15:53,14.9833114,0.0002741,70.001,349.7631,261.8783,98.2065,-1.19e-05,-2.35e-06,0.0,0 STARLINK-5324,1 55677U 23021BB  24004.34436434 -.00000235  00000-0 -11900-4 0  9996,2 55677  70.0010 349.7631 0002741 261.8783  98.2065 14.98331140 50641,6950.189,96.107,573.959,570.149,0.0
55677.0,STARLINK-5324,PAYLOAD,2024-01-04 22:41:05,14.98328178,0.0002875,70.0007,348.2484,265.4102,94.6729,2.0468e-05,1.51e-06,0.0,0 STARLINK-5324,1 55677U 23021BB  24004.94520492  .00000151  00000-0  20468-4 0  9994,2 55677  70.0007 348.2484 0002875 265.4102  94.6729 14.98328178 50734,6950.199,96.107,574.062,570.065,0.0
55677.0,STARLINK-5324,PAYLOAD,2024-01-05 05:05:38,14.98327329,0.0002888,70.0006,347.5752,266.5199,93.563,9.3289e-06,1.8e-07,0.0,0 STARLINK-5324,1 55677U 23021BB  24005.21224618  .00000018  00000-0  93289-5 0  9990,2 55677  70.0006 347.5752 0002888 266.5199  93.5630 14.98327329 50472,6950.201,96.107,574.073,570.059,0.0
55677.0,STARLINK-5324,PAYLOAD,2024-01-05 08:17:54,14.98327977,0.000288,70.0007,347.2385,266.4846,93.5983,1.6291e-05,1.01e-06,0.0,0 STARLINK-5324,1 55677U 23021BB  24005.34576571  .00000101  00000-0  16291-4 0  9992,2 55677  70.0007 347.2385 0002880 266.4846  93.5983 14.98327977 50797,6950.199,96.107,574.066,570.062,0.0
55677.0,STARLINK-5324,PAYLOAD,2024-01-05 22:43:06,14.98329835,0.0002839,70.0007,345.7237,266.4269,93.6565,-7.3828e-06,-1.81e-06,0.0,0 STARLINK-5324,1 55677U 23021BB  24005.94660545 -.00000181  00000-0 -73828-5 0  9993,2 55677  70.0007 345.7237 0002839 266.4269  93.6565 14.98329835 50881,6950.193,96.107,574.032,570.085,0.0
55677.0,STARLINK-5324,PAYLOAD,2024-01-06 08:19:54,14.9833127,0.0002837,70.0007,344.7137,267.0041,93.0794,1.0726e-05,3.5e-07,0.0,0 STARLINK-5324,1 55677U 23021BB  24006.34716386  .00000035  00000-0  10726-4 0  9996,2 55677  70.0007 344.7137 0002837 267.0041  93.0794 14.98331270 50640,6950.189,96.107,574.026,570.082,0.0
55677.0,STARLINK-5324,PAYLOAD,2024-01-06 22:45:07,14.98330032,0.0002822,70.0008,343.1987,267.2976,92.786,2.7398e-05,2.34e-06,0.0,0 STARLINK-5324,1 55677U 23021BB  24006.94800358  .00000234  00000-0  27398-4 0  9999,2 55677  70.0008 343.1987 0002822 267.2976  92.7860 14.98330032 51039,6950.193,96.107,574.019,570.096,0.0
55677.0,STARLINK-5324,PAYLOAD,2024-01-07 08:21:55,14.98330706,0.0002822,70.0007,342.1886,267.2567,92.8269,3.2181e-05,2.91e-06,0.0,0 STARLINK-5324,1 55677U 23021BB  24007.34856288  .00000291  00000-0  32181-4 0  9996,2 55677  70.0007 342.1886 0002822 267.2567  92.8269 14.98330706 50795,6950.191,96.107,574.017,570.094,0.0
55677.0,STARLINK-5324,PAYLOAD,2024-01-07 22:47:08,14.98331293,0.0002797,70.0008,340.6735,269.9336,90.1503,4.6682e-06,-3.7e-07,0.0,0 STARLINK-5324,1 55677U 23021BB  24007.94940299 -.00000037  00000-0  46682-5 0  9999,2 55677  70.0008 340.6735 0002797 269.9336  90.1503 14.98331293 51184,6950.189,96.107,573.998,570.11,0.0
55677.0,STARLINK-5324,PAYLOAD,2024-01-08 08:23:56,14.98334303,0.0002773,70.0008,339.6631,270.5895,89.4946,3.9961e-05,3.84e-06,0.0,0 STARLINK-5324,1 55677U 23021BB  24008.34995948  .00000384  00000-0  39961-4 0  9990,2 55677  70.0008 339.6631 0002773 270.5895  89.4946 14.98334303 50949,6950.18,96.107,573.972,570.117,0.0
55677.0,STARLINK-5324,PAYLOAD,2024-01-08 22:49:09,14.98317487,0.000265,70.0012,338.1482,267.1586,92.927,0.00015423,1.747e-05,0.0,0 STARLINK-5324,1 55677U 23021BB  24008.95080486  .00001747  00000-0  15423-3 0  9999,2 55677  70.0012 338.1482 0002650 267.1586  92.9270 14.98317487 51332,6950.232,96.108,573.938,570.255,0.0
55677.0,STARLINK-5324,PAYLOAD,2024-01-09 05:13:41,14.98323864,0.0002652,70.0012,337.475,265.2692,94.8164,2.9958e-05,2.64e-06,0.0,0 STARLINK-5324,1 55677U 23021BB  24009.21784574  .00000264  00000-0  29958-4 0  9990,2 55677  70.0012 337.4750 0002652 265.2692  94.8164 14.98323864 51071,6950.212,96.107,573.92,570.234,0.0
55677.0,STARLINK-5324,PAYLOAD,2024-01-09 08:25:57,14.98328589,0.0002558,70.0014,337.1396,257.7686,102.3186,-7.0041e-06,-1.76e-06,0.0,0 STARLINK-5324,1 55677U 23021BB  24009.35136386 -.00000176  00000-0 -70041-5 0  9991,2 55677  70.0014 337.1396 0002558 257.7686 102.3186 14.98328589 51393,6950.197,96.107,573.84,570.284,0.0
55677.0,STARLINK-5324,PAYLOAD,2024-01-09 22:51:10,14.98332318,0.0002603,70.0014,335.625,256.5021,103.5848,5.7289e-06,-2.5e-07,0.0,0 STARLINK-5324,1 55677U 23021BB  24009.95219995 -.00000025  00000-0  57289-5 0  9996,2 55677  70.0014 335.6250 0002603 256.5021 103.5848 14.98332318 51489,6950.186,96.107,573.86,570.242,0.0
55677.0,STARLINK-5324,PAYLOAD,2024-01-10 05:15:42,14.98331212,0.0002639,70.0014,334.952,251.9615,108.1257,7.9034e-06,1e-08,0.0,0 STARLINK-5324,1 55677U 23021BB  24010.21924007  .00000001  00000-0  79034-5 0  9999,2 55677  70.0014 334.9520 0002639 251.9615 108.1257 14.98331212 51227,6950.189,96.107,573.888,570.22,0.0
55677.0,STARLINK-5324,PAYLOAD,2024-01-10 08:27:58,14.98333012,0.0002704,70.0011,334.6149,255.8543,104.2316,5.5298e-06,-2.7e-07,0.0,0 STARLINK-5324,1 55677U 23021BB  24010.35275883 -.00000027  00000-0  55298-5 0  9990,2 55677  70.0011 334.6149 0002704 255.8543 104.2316 14.98333012 51542,6950.184,96.107,573.928,570.169,0.0
55677.0,STARLINK-5324,PAYLOAD,2024-01-11 06:53:51,14.98329087,0.0002581,70.0017,332.2593,251.6486,108.4392,2.3198e-05,1.84e-06,0.0,0 STARLINK-5324,1 55677U 23021BB  24011.28740114  .00000184  00000-0  23198-4 0  9993,2 55677  70.0017 332.2593 0002581 251.6486 108.4392 14.98329087 51387,6950.196,96.107,573.855,570.267,0.0
55677.0,STARLINK-5324,PAYLOAD,2024-01-11 21:19:04,14.98324422,0.0002414,70.002,330.7442,251.9516,108.138,2.9511e-05,2.59e-06,0.0,0 STARLINK-5324,1 55677U 23021BB  24011.88824407  .00000259  00000-0  29511-4 0  9995,2 55677  70.0020 330.7442 0002414 251.9516 108.1380 14.98324422 51774,6950.21,96.107,573.753,570.397,0.0
55677.0,STARLINK-5324,PAYLOAD,2024-01-12 06:55:52,14.98327812,0.0002647,70.0014,329.7339,260.3103,99.7757,-1.0112e-05,-2.14e-06,0.0,0 STARLINK-5324,1 55677U 23021BB  24012.28880440 -.00000214  00000-0 -10112-4 0  9999,2 55677  70.0014 329.7339 0002647 260.3103  99.7757 14.98327812 51537,6950.2,96.107,573.904,570.225,0.0
55677.0,STARLINK-5324,PAYLOAD,2024-01-12 22:57:13,14.98329545,0.0002893,70.0007,328.0498,265.2534,94.8294,5.9616e-06,-2.2e-07,0.0,0 STARLINK-5324,1 55677U 23021BB  24012.95640326 -.00000022  00000-0  59616-5 0  9999,2 55677  70.0007 328.0498 0002893 265.2534  94.8294 14.98329545 51933,6950.194,96.107,574.07,570.049,0.0
55677.0,STARLINK-5324,PAYLOAD,2024-01-13 06:57:53,14.98331351,0.000275,70.0014,327.2089,264.4476,95.6369,5.5814e-05,5.73e-06,0.0,0 STARLINK-5324,1 55677U 23021BB  24013.29020085  .00000573  00000-0  55814-4 0  9996,2 55677  70.0014 327.2089 0002750 264.4476  95.6369 14.98331351 51688,6950.189,96.107,573.965,570.142,0.0
55677.0,STARLINK-5324,PAYLOAD,2024-01-14 06:59:54,14.98332735,0.0002694,70.0013,324.683,266.2297,93.8554,8.8166e-05,9.59e-06,0.0,0 STARLINK-5324,1 55677U 23021BB  24014.29159897  .00000959  00000-0  88166-4 0  9995,2 55677  70.0013 324.6830 0002694 266.2297  93.8554 14.98332735 51830,6950.184,96.107,573.922,570.177,0.0
55677.0,STARLINK-5324,PAYLOAD,2024-01-14 21:25:06,14.98332111,0.0002521,70.0018,323.1682,261.6022,98.4851,1.8546e-05,1.28e-06,0.0,0 STARLINK-5324,1 55677U 23021BB  24014.89244012  .00000128  00000-0  18546-4 0  9998,2 55677  70.0018 323.1682 0002521 261.6022  98.4851 14.98332111 52221,6950.186,96.107,573.804,570.299,0.0
55677.0,STARLINK-5324,PAYLOAD,2024-01-15 07:01:54,14.98336168,0.0002504,70.0019,322.1579,260.4476,99.6401,9.4557e-05,1.036e-05,0.0,0 STARLINK-5324,1 55677U 23021BB  24015.29299430  .00001036  00000-0  94557-4 0  9992,2 55677  70.0019 322.1579 0002504 260.4476  99.6401 14.98336168 51989,6950.174,96.107,573.779,570.298,0.0
55677.0,STARLINK-5324,PAYLOAD,2024-01-16 00:39:24,14.98323603,0.0002429,70.0032,320.3089,233.2539,126.8398,-1.7332e-05,-3e-06,0.0,0 STARLINK-5324,1 55677U 23021BB  24016.02736520 -.00000300  00000-0 -17332-4 0  9991,2 55677  70.0032 320.3089 0002429 233.2539 126.8398 14.98323603 52095,6950.213,96.107,573.766,570.389,0.0
55677.0,STARLINK-5324,PAYLOAD,2024-01-16 05:27:48,14.98322844,0.0002575,70.0017,319.8013,249.4071,110.6812,-8.5853e-05,-1.117e-05,0.0,0 STARLINK-5324,1 55677U 23021BB  24016.22764758 -.00001117  00000-0 -85853-4 0  9997,2 55677  70.0017 319.8013 0002575 249.4071 110.6812 14.98322844 52425,6950.215,96.107,573.87,570.29,0.0
55677.0,STARLINK-5324,PAYLOAD,2024-01-16 21:29:08,14.98332872,0.0002903,70.0005,318.1168,263.8637,96.2191,-4.0443e-05,-5.76e-06,0.0,0 STARLINK-5324,1 55677U 23021BB  24016.89524053 -.00000576  00000-0 -40443-4 0  9996,2 55677  70.0005 318.1168 0002903 263.8637  96.2191 14.98332872 52520,6950.184,96.107,574.067,570.031,0.0
55677.0,STARLINK-5324,PAYLOAD,2024-01-17 03:53:40,14.98336486,0.0002723,70.001,317.4442,257.2854,102.8001,2.9836e-05,2.63e-06,0.0,0 STARLINK-5324,1 55677U 23021BB  24017.16227549  .00000263  00000-0  29836-4 0  9991,2 55677  70.0010 317.4442 0002723 257.2854 102.8001 14.98336486 52261,6950.173,96.107,573.93,570.145,0.0
55677.0,STARLINK-5324,PAYLOAD,2024-01-17 05:29:48,14.98338972,0.0002769,70.001,317.2762,256.2469,103.8382,4.1569e-05,4.03e-06,0.0,0 STARLINK-5324,1 55677U 23021BB  24017.22903319  .00000403  00000-0  41569-4 0  9997,2 55677  70.0010 317.2762 0002769 256.2469 103.8382 14.98338972 52574,6950.165,96.106,573.955,570.106,0.0
